STARLINK-36559          
1 67555U 26014Z   26032.50002314 -.01454222  60117-3 -44886-2 0  9991
2 67555  97.2770 275.5629 0001282  81.3120 181.3312 15.91807349  2879
MR-1                    
1 67556U 26015A   26032.17101387  .00000083  00000+0  10633-3 0  9990
2 67556  88.9992 282.3722 0004977 104.0311 256.1395 13.52685257  1320
MR-2                    
1 67557U 26015B   26032.46707767  .00000046  00000+0  50666-4 0  9997
2 67557  88.9991 282.3425 0005054 102.5713 257.6004 13.52660463  1365
ELECTRON R/B            
1 67558U 26015C   26032.23403446  .01058499 -56461-6  10825-2 0  9997
2 67558  89.0045 282.1001 0574862 234.7223 119.8949 14.97947384  1466
ELECTRON KICK STAGE R/B 
1 67559U 26015D   26032.38182587  .00053653 -25611-7  91326-3 0  9990
2 67559  89.0532 282.1803 0535939 300.9669  53.9926 14.66423358  1469
STARLINK-36426          
1 67560U 26014AA  26032.50002314 -.01458444  60287-3 -45605-2 0  9995
2 67560  97.2770 275.5602 0001447  84.4852 172.3317 15.91553385  1710
STARLINK-36621          
1 67561U 26016A   26030.69183085 -.00389579  57861-4 -68839-3 0  9992
2 67561  97.2833  89.0280 0000869  36.4682 323.6657 16.01900814   808
STARLINK-36398          
1 67562U 26016B   26030.69152846 -.00505743  94260-4 -88679-3 0  9995
2 67562  97.2832  89.0285 0000198 138.6845 221.4450 16.02050774   802
STARLINK-36403          
1 67563U 26016C   26030.69127817 -.00429786  69721-4 -74557-3 0  9992
2 67563  97.2836  89.0275 0001861 194.7661 165.3565 16.02221008   806
STARLINK-36593          
1 67564U 26016D   26030.69098966 -.00414057  65184-4 -71090-3 0  9998
2 67564  97.2837  89.0281 0001775 186.3831 173.7426 16.02396118   809
STARLINK-35725          
1 67565U 26016E   26030.69075945 -.00370073  53039-4 -62820-3 0  9997
2 67565  97.2830  89.0289 0000395 167.6377 192.4912 16.02587068   809
STARLINK-36394          
1 67566U 26016F   26030.68972059 -.00385535  57575-4 -63575-3 0  9995
2 67566  97.2825  89.0312 0000732  44.7927 315.3412 16.03082623   801
