CCSDS_OMM_VERS = 2.0
CREATION_DATE  = 
ORIGINATOR     = 

OBJECT_NAME    = STARLINK-36559
OBJECT_ID      = 2026-014Z
CENTER_NAME    = EARTH
REF_FRAME      = TEME
TIME_SYSTEM    = UTC
MEAN_ELEMENT_THEORY = SGP/SGP4

EPOCH          = 2026-02-01T12:00:01.999296
MEAN_MOTION    = 15.91807349
ECCENTRICITY   = .0001282
INCLINATION    = 97.2770
RA_OF_ASC_NODE = 275.5629
ARG_OF_PERICENTER = 81.3120
MEAN_ANOMALY   = 181.3312

EPHEMERIS_TYPE = 0
CLASSIFICATION_TYPE = U
NORAD_CAT_ID   = 67555
ELEMENT_SET_NO = 999
REV_AT_EPOCH   = 287
BSTAR          = -.44886E-2
MEAN_MOTION_DOT = -.1454222E-1
MEAN_MOTION_DDOT = .60117E-3

CCSDS_OMM_VERS = 2.0
CREATION_DATE  = 
ORIGINATOR     = 

OBJECT_NAME    = MR-1
OBJECT_ID      = 2026-015A
CENTER_NAME    = EARTH
REF_FRAME      = TEME
TIME_SYSTEM    = UTC
MEAN_ELEMENT_THEORY = SGP/SGP4

EPOCH          = 2026-02-01T04:06:15.598368
MEAN_MOTION    = 13.52685257
ECCENTRICITY   = .00049778
INCLINATION    = 88.9992
RA_OF_ASC_NODE = 282.3722
ARG_OF_PERICENTER = 104.0311
MEAN_ANOMALY   = 256.1395

EPHEMERIS_TYPE = 0
CLASSIFICATION_TYPE = U
NORAD_CAT_ID   = 67556
ELEMENT_SET_NO = 999
REV_AT_EPOCH   = 132
BSTAR          = .10632705E-3
MEAN_MOTION_DOT = .83E-6
MEAN_MOTION_DDOT = 0

CCSDS_OMM_VERS = 2.0
CREATION_DATE  = 
ORIGINATOR     = 

OBJECT_NAME    = MR-2
OBJECT_ID      = 2026-015B
CENTER_NAME    = EARTH
REF_FRAME      = TEME
TIME_SYSTEM    = UTC
MEAN_ELEMENT_THEORY = SGP/SGP4

EPOCH          = 2026-02-01T11:12:35.510688
MEAN_MOTION    = 13.52660463
ECCENTRICITY   = .0005054
INCLINATION    = 88.9991
RA_OF_ASC_NODE = 282.3425
ARG_OF_PERICENTER = 102.5713
MEAN_ANOMALY   = 257.6004

EPHEMERIS_TYPE = 0
CLASSIFICATION_TYPE = U
NORAD_CAT_ID   = 67557
ELEMENT_SET_NO = 999
REV_AT_EPOCH   = 136
BSTAR          = .50666E-4
MEAN_MOTION_DOT = .46E-6
MEAN_MOTION_DDOT = 0

CCSDS_OMM_VERS = 2.0
CREATION_DATE  = 
ORIGINATOR     = 

OBJECT_NAME    = ELECTRON R/B
OBJECT_ID      = 2026-015C
CENTER_NAME    = EARTH
REF_FRAME      = TEME
TIME_SYSTEM    = UTC
MEAN_ELEMENT_THEORY = SGP/SGP4

EPOCH          = 2026-02-01T05:37:00.577344
MEAN_MOTION    = 14.97947384
ECCENTRICITY   = .0574862
INCLINATION    = 89.0045
RA_OF_ASC_NODE = 282.1001
ARG_OF_PERICENTER = 234.7223
MEAN_ANOMALY   = 119.8949

EPHEMERIS_TYPE = 0
CLASSIFICATION_TYPE = U
NORAD_CAT_ID   = 67558
ELEMENT_SET_NO = 999
REV_AT_EPOCH   = 146
BSTAR          = .10825E-2
MEAN_MOTION_DOT = .1058499E-1
MEAN_MOTION_DDOT = -.56461E-6

CCSDS_OMM_VERS = 2.0
CREATION_DATE  = 
ORIGINATOR     = 

OBJECT_NAME    = ELECTRON KICK STAGE R/B
OBJECT_ID      = 2026-015D
CENTER_NAME    = EARTH
REF_FRAME      = TEME
TIME_SYSTEM    = UTC
MEAN_ELEMENT_THEORY = SGP/SGP4

EPOCH          = 2026-02-01T09:09:49.755168
MEAN_MOTION    = 14.66423358
ECCENTRICITY   = .0535939
INCLINATION    = 89.0532
RA_OF_ASC_NODE = 282.1803
ARG_OF_PERICENTER = 300.9669
MEAN_ANOMALY   = 53.9926

EPHEMERIS_TYPE = 0
CLASSIFICATION_TYPE = U
NORAD_CAT_ID   = 67559
ELEMENT_SET_NO = 999
REV_AT_EPOCH   = 146
BSTAR          = .91326E-3
MEAN_MOTION_DOT = .53653E-3
MEAN_MOTION_DDOT = -.25611E-7

CCSDS_OMM_VERS = 2.0
CREATION_DATE  = 
ORIGINATOR     = 

OBJECT_NAME    = STARLINK-36426
OBJECT_ID      = 2026-014AA
CENTER_NAME    = EARTH
REF_FRAME      = TEME
TIME_SYSTEM    = UTC
MEAN_ELEMENT_THEORY = SGP/SGP4

EPOCH          = 2026-02-01T12:00:01.999296
MEAN_MOTION    = 15.91553385
ECCENTRICITY   = .0001447
INCLINATION    = 97.2770
RA_OF_ASC_NODE = 275.5602
ARG_OF_PERICENTER = 84.4852
MEAN_ANOMALY   = 172.3317

EPHEMERIS_TYPE = 0
CLASSIFICATION_TYPE = U
NORAD_CAT_ID   = 67560
ELEMENT_SET_NO = 999
REV_AT_EPOCH   = 171
BSTAR          = -.45605E-2
MEAN_MOTION_DOT = -.1458444E-1
MEAN_MOTION_DDOT = .60287E-3

CCSDS_OMM_VERS = 2.0
CREATION_DATE  = 
ORIGINATOR     = 

OBJECT_NAME    = STARLINK-36621
OBJECT_ID      = 2026-016A
CENTER_NAME    = EARTH
REF_FRAME      = TEME
TIME_SYSTEM    = UTC
MEAN_ELEMENT_THEORY = SGP/SGP4

EPOCH          = 2026-01-30T16:36:14.185440
MEAN_MOTION    = 16.01900814
ECCENTRICITY   = .0000869
INCLINATION    = 97.2833
RA_OF_ASC_NODE = 89.0280
ARG_OF_PERICENTER = 36.4682
MEAN_ANOMALY   = 323.6657

EPHEMERIS_TYPE = 0
CLASSIFICATION_TYPE = U
NORAD_CAT_ID   = 67561
ELEMENT_SET_NO = 999
REV_AT_EPOCH   = 80
BSTAR          = -.68838613E-3
MEAN_MOTION_DOT = -.389579E-2
MEAN_MOTION_DDOT = .57861304E-4

CCSDS_OMM_VERS = 2.0
CREATION_DATE  = 
ORIGINATOR     = 

OBJECT_NAME    = STARLINK-36398
OBJECT_ID      = 2026-016B
CENTER_NAME    = EARTH
REF_FRAME      = TEME
TIME_SYSTEM    = UTC
MEAN_ELEMENT_THEORY = SGP/SGP4

EPOCH          = 2026-01-30T16:35:48.058944
MEAN_MOTION    = 16.02050774
ECCENTRICITY   = .00001986
INCLINATION    = 97.2832
RA_OF_ASC_NODE = 89.0285
ARG_OF_PERICENTER = 138.6845
MEAN_ANOMALY   = 221.4450

EPHEMERIS_TYPE = 0
CLASSIFICATION_TYPE = U
NORAD_CAT_ID   = 67562
ELEMENT_SET_NO = 999
REV_AT_EPOCH   = 80
BSTAR          = -.88679346E-3
MEAN_MOTION_DOT = -.505743E-2
MEAN_MOTION_DDOT = .94260023E-4

CCSDS_OMM_VERS = 2.0
CREATION_DATE  = 
ORIGINATOR     = 

OBJECT_NAME    = STARLINK-36403
OBJECT_ID      = 2026-016C
CENTER_NAME    = EARTH
REF_FRAME      = TEME
TIME_SYSTEM    = UTC
MEAN_ELEMENT_THEORY = SGP/SGP4

EPOCH          = 2026-01-30T16:35:26.433888
MEAN_MOTION    = 16.02221008
ECCENTRICITY   = .00018616
INCLINATION    = 97.2836
RA_OF_ASC_NODE = 89.0275
ARG_OF_PERICENTER = 194.7661
MEAN_ANOMALY   = 165.3565

EPHEMERIS_TYPE = 0
CLASSIFICATION_TYPE = U
NORAD_CAT_ID   = 67563
ELEMENT_SET_NO = 999
REV_AT_EPOCH   = 80
BSTAR          = -.74556519E-3
MEAN_MOTION_DOT = -.429786E-2
MEAN_MOTION_DDOT = .69721207E-4

CCSDS_OMM_VERS = 2.0
CREATION_DATE  = 
ORIGINATOR     = 

OBJECT_NAME    = STARLINK-36593
OBJECT_ID      = 2026-016D
CENTER_NAME    = EARTH
REF_FRAME      = TEME
TIME_SYSTEM    = UTC
MEAN_ELEMENT_THEORY = SGP/SGP4

EPOCH          = 2026-01-30T16:35:01.506624
MEAN_MOTION    = 16.02396118
ECCENTRICITY   = .00017758
INCLINATION    = 97.2837
RA_OF_ASC_NODE = 89.0281
ARG_OF_PERICENTER = 186.3831
MEAN_ANOMALY   = 173.7426

EPHEMERIS_TYPE = 0
CLASSIFICATION_TYPE = U
NORAD_CAT_ID   = 67564
ELEMENT_SET_NO = 999
REV_AT_EPOCH   = 80
BSTAR          = -.71090026E-3
MEAN_MOTION_DOT = -.414057E-2
MEAN_MOTION_DDOT = .65184333E-4

CCSDS_OMM_VERS = 2.0
CREATION_DATE  = 
ORIGINATOR     = 

OBJECT_NAME    = STARLINK-35725
OBJECT_ID      = 2026-016E
CENTER_NAME    = EARTH
REF_FRAME      = TEME
TIME_SYSTEM    = UTC
MEAN_ELEMENT_THEORY = SGP/SGP4

EPOCH          = 2026-01-30T16:34:41.616480
MEAN_MOTION    = 16.02587068
ECCENTRICITY   = .00003955
INCLINATION    = 97.2830
RA_OF_ASC_NODE = 89.0289
ARG_OF_PERICENTER = 167.6377
MEAN_ANOMALY   = 192.4912

EPHEMERIS_TYPE = 0
CLASSIFICATION_TYPE = U
NORAD_CAT_ID   = 67565
ELEMENT_SET_NO = 999
REV_AT_EPOCH   = 80
BSTAR          = -.62820048E-3
MEAN_MOTION_DOT = -.370073E-2
MEAN_MOTION_DDOT = .53038874E-4

CCSDS_OMM_VERS = 2.0
CREATION_DATE  = 
ORIGINATOR     = 

OBJECT_NAME    = STARLINK-36394
OBJECT_ID      = 2026-016F
CENTER_NAME    = EARTH
REF_FRAME      = TEME
TIME_SYSTEM    = UTC
MEAN_ELEMENT_THEORY = SGP/SGP4

EPOCH          = 2026-01-30T16:33:11.858976
MEAN_MOTION    = 16.03082623
ECCENTRICITY   = .00007327
INCLINATION    = 97.2825
RA_OF_ASC_NODE = 89.0312
ARG_OF_PERICENTER = 44.7927
MEAN_ANOMALY   = 315.3412

EPHEMERIS_TYPE = 0
CLASSIFICATION_TYPE = U
NORAD_CAT_ID   = 67566
ELEMENT_SET_NO = 999
REV_AT_EPOCH   = 80
BSTAR          = -.6357502E-3
MEAN_MOTION_DOT = -.385535E-2
MEAN_MOTION_DDOT = .57574838E-4

